url,storeName,storeNumber,city,state,zip,googleMatchCount
https://www.homedepot.com/l/21st-South/UT/Salt-Lake-City/84115/4403,21st South,4403,Salt Lake City,UT,84115,4
https://www.homedepot.com/l/Alexandria/LA/Alexandria/71301/374,Alexandria,374,Alexandria,LA,71301,2
https://www.homedepot.com/l/Annapolis/MD/Annapolis/21401/2557,Annapolis,2557,Annapolis,MD,21401,2
https://www.homedepot.com/l/Antioch/TN/Antioch/37013/721,Antioch,721,Antioch,TN,37013,2
https://www.homedepot.com/l/Apache-Junction/AZ/Mesa/85209/404,Apache Junction,404,Mesa,AZ,85209,3
https://www.homedepot.com/l/Arrowhead-Ranch/AZ/Glendale/85308/475,Arrowhead Ranch,475,Glendale,AZ,85308,2
https://www.homedepot.com/l/Auburn/MA/Auburn/01501/2682,Auburn,2682,Auburn,MA,01501,2
https://www.homedepot.com/l/Aurora/WA/Shoreline/98133/4707,Aurora,4707,Shoreline,WA,98133,4
https://www.homedepot.com/l/Bandera-Rd/TX/San-Antonio/78249/6547,Bandera Rd,6547,San Antonio,TX,78249,2
https://www.homedepot.com/l/Bensalem/PA/Bensalem/19020/4103,Bensalem,4103,Bensalem,PA,19020,2
https://www.homedepot.com/l/Bitterlake/WA/Seattle/98133/4706,Bitterlake,4706,Seattle,WA,98133,4
https://www.homedepot.com/l/Bloomfield/CT/Bloomfield/06002/6228,Bloomfield,6228,Bloomfield,CT,06002,2
https://www.homedepot.com/l/Bloomsburg/PA/Bloomsburg/17815/4171,Bloomsburg,4171,Bloomsburg,PA,17815,2
https://www.homedepot.com/l/Brainerd-Baxter/MN/Baxter/56425/2818,Brainerd Baxter,2818,Baxter,MN,56425,2
https://www.homedepot.com/l/Brandon/FL/Tampa/33619/243,Brandon,243,Tampa,FL,33619,3
https://www.homedepot.com/l/Bridgeport/WV/Bridgeport/26330/8433,Bridgeport,8433,Bridgeport,WV,26330,2
https://www.homedepot.com/l/Bridgewater-II-Route-202/NJ/Bridgewater/08807/962,Bridgewater II Route 202,962,Bridgewater,NJ,08807,2
https://www.homedepot.com/l/Bridgewater-Route-28/NJ/Bridgewater/08807/947,Bridgewater Route 28,947,Bridgewater,NJ,08807,2
https://www.homedepot.com/l/Brookwood/GA/Suwanee/30024/6978,Brookwood,6978,Suwanee,GA,30024,2
https://www.homedepot.com/l/Cary/NC/Cary/27518/3615,Cary,3615,Cary,NC,27518,2
https://www.homedepot.com/l/Cascade/GA/Atlanta/30331/130,Cascade,130,Atlanta,GA,30331,2
https://www.homedepot.com/l/Casper/WY/Casper/82609/6001,Casper,6001,Casper,WY,82609,2
https://www.homedepot.com/l/Cave-Creek/AZ/Phoenix/85022/480,Cave Creek,480,Phoenix,AZ,85022,2
https://www.homedepot.com/l/Colma-II/CA/Colma/94014/639,Colma II,639,Colma,CA,94014,2
https://www.homedepot.com/l/Concord/NH/Concord/03301/3485,Concord,3485,Concord,NH,03301,2
https://www.homedepot.com/l/Cumberland/GA/Atlanta/30339/121,Cumberland,121,Atlanta,GA,30339,2
https://www.homedepot.com/l/Daly-City/CA/Daly-City/94015/1092,Daly City,1092,Daly City,CA,94015,2
https://www.homedepot.com/l/Danvers-East/MA/Danvers/01923/2623,Danvers East,2623,Danvers,MA,01923,2
https://www.homedepot.com/l/Danvers/MA/Danvers/01923/2663,Danvers,2663,Danvers,MA,01923,2
https://www.homedepot.com/l/Denver-Sw/CO/Denver/80123/1507,Denver Sw,1507,Denver,CO,80123,2
https://www.homedepot.com/l/E-Las-Vegas/NV/Las-Vegas/89104/3303,E Las Vegas,3303,Las Vegas,NV,89104,2
https://www.homedepot.com/l/East-Boise/ID/Boise/83705/1806,East Boise,1806,Boise,ID,83705,2
https://www.homedepot.com/l/East-Charlotte/NC/Charlotte/28227/3639,East Charlotte,3639,Charlotte,NC,28227,2
https://www.homedepot.com/l/East-Hialeah/FL/Hialeah/33010/6378,East Hialeah,6378,Hialeah,FL,33010,2
https://www.homedepot.com/l/East-Montgomery/AL/Montgomery/36117/813,East Montgomery,813,Montgomery,AL,36117,3
https://www.homedepot.com/l/Ellisville/MO/Ellisville/63011/3018,Ellisville,3018,Ellisville,MO,63011,4
https://www.homedepot.com/l/Fair-Ave/TX/San-Antonio/78223/503,Fair Ave,503,San Antonio,TX,78223,2
https://www.homedepot.com/l/Fairbanks/AK/Fairbanks/99701/1303,Fairbanks,1303,Fairbanks,AK,99701,2
https://www.homedepot.com/l/Fairfax-Circle/VA/Fairfax/22030/4639,Fairfax Circle,4639,Fairfax,VA,22030,2
https://www.homedepot.com/l/Fairfax/VA/Fairfax/22030/4601,Fairfax,4601,Fairfax,VA,22030,2
https://www.homedepot.com/l/Falls-Church/VA/Falls-Church/22044/4608,Falls Church,4608,Falls Church,VA,22044,2
https://www.homedepot.com/l/Fargo/ND/Fargo/58103/3701,Fargo,3701,Fargo,ND,58103,2
https://www.homedepot.com/l/Glen-Burnie/MD/Glen-Burnie/21060/2501,Glen Burnie,2501,Glen Burnie,MD,21060,3
https://www.homedepot.com/l/Grand-Parkway/TX/Katy/77494/6561,Grand Parkway,6561,Katy,TX,77494,2
https://www.homedepot.com/l/Grand-Prairie-South/TX/Grand-Prairie/75052/8517,Grand Prairie South,8517,Grand Prairie,TX,75052,2
https://www.homedepot.com/l/Grand-Prairie/TX/Grand-Prairie/75052/507,Grand Prairie,507,Grand Prairie,TX,75052,2
https://www.homedepot.com/l/Hendersonville/TN/Hendersonville/37075/735,Hendersonville,735,Hendersonville,TN,37075,2
https://www.homedepot.com/l/Honolulu/HI/Honolulu/96817/1701,Honolulu,1701,Honolulu,HI,96817,2
https://www.homedepot.com/l/Hoover/AL/Birmingham/35244/881,Hoover,881,Birmingham,AL,35244,2
https://www.homedepot.com/l/Howard-Lane/TX/Austin/78753/6553,Howard Lane,6553,Austin,TX,78753,2
https://www.homedepot.com/l/Hutto/TX/Hutto/78634/8439,Hutto,8439,Hutto,TX,78634,2
https://www.homedepot.com/l/Imperial-Beach/CA/San-Diego/92154/671,Imperial Beach,671,San Diego,CA,92154,2
https://www.homedepot.com/l/Inverness/AL/Birmingham/35242/875,Inverness,875,Birmingham,AL,35242,2
https://www.homedepot.com/l/Jantzen-Beach/OR/Portland/97217/4007,Jantzen Beach,4007,Portland,OR,97217,2
https://www.homedepot.com/l/Kendall/FL/Miami/33186/210,Kendall,210,Miami,FL,33186,2
https://www.homedepot.com/l/Kennesaw/GA/Kennesaw/30144/106,Kennesaw,106,Kennesaw,GA,30144,2
https://www.homedepot.com/l/La-Mirada/CA/La-Mirada/90638/684,La Mirada,684,La Mirada,CA,90638,2
https://www.homedepot.com/l/Lafayette/LA/Lafayette/70503/360,Lafayette,360,Lafayette,LA,70503,2
https://www.homedepot.com/l/Lancaster/SC/Lancaster/29720/8913,Lancaster,8913,Lancaster,SC,29720,2
https://www.homedepot.com/l/Lilburn/GA/Lilburn/30047/110,Lilburn,110,Lilburn,GA,30047,2
https://www.homedepot.com/l/Lindon/UT/Lindon/84042/4407,Lindon,4407,Lindon,UT,84042,2
https://www.homedepot.com/l/Littleton/CO/Littleton/80123/1519,Littleton,1519,Littleton,CO,80123,2
https://www.homedepot.com/l/Long-Beach/CA/Signal-Hill/90755/1062,Long Beach,1062,Signal Hill,CA,90755,2
https://www.homedepot.com/l/Los-Lunas/NM/Los-Lunas/87031/3511,Los Lunas,3511,Los Lunas,NM,87031,2
https://www.homedepot.com/l/Manchester-Road/MO/Ballwin/63011/3004,Manchester Road,3004,Ballwin,MO,63011,4
https://www.homedepot.com/l/Mcallen/TX/Pharr/78577/506,Mcallen,506,Pharr,TX,78577,3
https://www.homedepot.com/l/Mcdonough/GA/Mcdonough/30253/157,Mcdonough,157,Mcdonough,GA,30253,2
https://www.homedepot.com/l/Menomonee-Falls/WI/Menomonee-Falls/53051/4940,Menomonee Falls,4940,Menomonee Falls,WI,53051,2
https://www.homedepot.com/l/Middletown/DE/Middletown/19709/6843,Middletown,6843,Middletown,DE,19709,2
https://www.homedepot.com/l/Midtown-Kansas-City/MO/Kansas-City/64111/3021,Midtown Kansas City,3021,Kansas City,MO,64111,2
https://www.homedepot.com/l/Military/TX/San-Antonio/78224/6529,Military,6529,San Antonio,TX,78224,2
https://www.homedepot.com/l/Montano/NM/Albuquerque/87107/3502,Montano,3502,Albuquerque,NM,87107,2
https://www.homedepot.com/l/Montgomery/AL/Montgomery/36117/883,Montgomery,883,Montgomery,AL,36117,3
https://www.homedepot.com/l/Murfreesboro/TN/Murfreesboro/37129/707,Murfreesboro,707,Murfreesboro,TN,37129,2
https://www.homedepot.com/l/N-Brownsville/TX/Brownsville/78520/6984,N Brownsville,6984,Brownsville,TX,78520,2
https://www.homedepot.com/l/N-Kingstown/RI/North-Kingstown/02852/4283,N Kingstown,4283,North Kingstown,RI,02852,2
https://www.homedepot.com/l/N-Miami-Biscayne/FL/Miami/33181/6322,N Miami Biscayne,6322,Miami,FL,33181,2
https://www.homedepot.com/l/N-Oklahoma-City/OK/Oklahoma-City/73112/3902,N Oklahoma City,3902,Oklahoma City,OK,73112,2
https://www.homedepot.com/l/N-Phoenix/AZ/Phoenix/85022/401,N Phoenix,401,Phoenix,AZ,85022,2
https://www.homedepot.com/l/Neshaminy/PA/Bensalem/19020/4134,Neshaminy,4134,Bensalem,PA,19020,2
https://www.homedepot.com/l/New-Braunfels/TX/New-Braunfels/78130/8520,New Braunfels,8520,New Braunfels,TX,78130,2
https://www.homedepot.com/l/Niles/IL/Niles/60714/1907,Niles,1907,Niles,IL,60714,2
https://www.homedepot.com/l/North-Austin/TX/Austin/78759/6839,North Austin,6839,Austin,TX,78759,2
https://www.homedepot.com/l/North-Baton-Rouge/LA/Baton-Rouge/70815/367,North Baton Rouge,367,Baton Rouge,LA,70815,3
https://www.homedepot.com/l/North-Lafayette/LA/Lafayette/70501/376,North Lafayette,376,Lafayette,LA,70501,2
https://www.homedepot.com/l/North-Lilburn/GA/Lilburn/30047/1775,North Lilburn,1775,Lilburn,GA,30047,2
https://www.homedepot.com/l/North-San-Antonio/TX/San-Antonio/78249/588,North San Antonio,588,San Antonio,TX,78249,2
https://www.homedepot.com/l/North-Tacoma/WA/Tacoma/98409/4720,North Tacoma,4720,Tacoma,WA,98409,2
https://www.homedepot.com/l/Norwood/MA/Norwood/02062/2681,Norwood,2681,Norwood,MA,02062,2
https://www.homedepot.com/l/Olathe/KS/Olathe/66062/2201,Olathe,2201,Olathe,KS,66062,2
https://www.homedepot.com/l/Ontario/OH/Mansfield/44906/3846,Ontario,3846,Mansfield,OH,44906,2
https://www.homedepot.com/l/Ontario/OR/Ontario/97914/4025,Ontario,4025,Ontario,OR,97914,2
https://www.homedepot.com/l/Osage-Beach/MO/Osage-Beach/65065/3027,Osage Beach,3027,Osage Beach,MO,65065,2
https://www.homedepot.com/l/Otay-Mesa/CA/San-Diego/92154/1034,Otay Mesa,1034,San Diego,CA,92154,2
https://www.homedepot.com/l/Parkville/MD/Parkville/21234/2577,Parkville,2577,Parkville,MD,21234,2
https://www.homedepot.com/l/Pasadena/MD/Glen-Burnie/21060/2582,Pasadena,2582,Glen Burnie,MD,21060,3
https://www.homedepot.com/l/Peoria/IL/Peoria/61615/1978,Peoria,1978,Peoria,IL,61615,2
https://www.homedepot.com/l/Prattville/AL/Prattville/36066/806,Prattville,806,Prattville,AL,36066,2
https://www.homedepot.com/l/Quincy-II/MA/Quincy/02169/2608,Quincy II,2608,Quincy,MA,02169,2
https://www.homedepot.com/l/Quincy/MA/Quincy/02169/2670,Quincy,2670,Quincy,MA,02169,2
https://www.homedepot.com/l/Redding/CA/Redding/96003/6682,Redding,6682,Redding,CA,96003,2
https://www.homedepot.com/l/Round-Rock/TX/Round-Rock/78664/504,Round Rock,504,Round Rock,TX,78664,2
https://www.homedepot.com/l/S-Annapolis/MD/Annapolis/21401/2589,S Annapolis,2589,Annapolis,MD,21401,2
https://www.homedepot.com/l/SE-Military/TX/San-Antonio/78223/6988,SE Military,6988,San Antonio,TX,78223,2
https://www.homedepot.com/l/SW-Las-Vegas/NV/Las-Vegas/89147/3314,SW Las Vegas,3314,Las Vegas,NV,89147,2
https://www.homedepot.com/l/Saratoga-Springs/UT/Saratoga-Springs/84045/4461,Saratoga Springs,4461,Saratoga Springs,UT,84045,3
https://www.homedepot.com/l/Sebring/FL/Sebring/33870/6340,Sebring,6340,Sebring,FL,33870,2
https://www.homedepot.com/l/Seguin/TX/Seguin/78155/8437,Seguin,8437,Seguin,TX,78155,2
https://www.homedepot.com/l/Sierra-Vista/AZ/Sierra-Vista/85635/443,Sierra Vista,443,Sierra Vista,AZ,85635,2
https://www.homedepot.com/l/Signal-Hill/CA/Signal-Hill/90755/648,Signal Hill,648,Signal Hill,CA,90755,2
https://www.homedepot.com/l/Slaughter-Lane/TX/Austin/78744/6563,Slaughter Lane,6563,Austin,TX,78744,2
https://www.homedepot.com/l/South-Fresno/CA/Fresno/93727/1086,South Fresno,1086,Fresno,CA,93727,2
https://www.homedepot.com/l/South-Olathe/KS/Olathe/66062/2218,South Olathe,2218,Olathe,KS,66062,2
https://www.homedepot.com/l/South-Southington/CT/Southington/06489/6235,South Southington,6235,Southington,CT,06489,2
https://www.homedepot.com/l/Southington/CT/Southington/06489/6208,Southington,6208,Southington,CT,06489,2
https://www.homedepot.com/l/Southland/FL/Orlando/32809/232,Southland,232,Orlando,FL,32809,2
https://www.homedepot.com/l/Spring-Valley/TX/Houston/77024/6985,Spring Valley,6985,Houston,TX,77024,2
https://www.homedepot.com/l/Superstition/AZ/Mesa/85209/456,Superstition,456,Mesa,AZ,85209,3
https://www.homedepot.com/l/Suwanee/GA/Suwanee/30024/1754,Suwanee,1754,Suwanee,GA,30024,2
https://www.homedepot.com/l/Tacoma/WA/Tacoma/98409/4701,Tacoma,4701,Tacoma,WA,98409,2
https://www.homedepot.com/l/Taylor-West/MI/Taylor/48180/2789,Taylor West,2789,Taylor,MI,48180,2
https://www.homedepot.com/l/Taylor/MI/Taylor/48180/2709,Taylor,2709,Taylor,MI,48180,2
https://www.homedepot.com/l/Tewksbury/MA/Tewksbury/01876/2668,Tewksbury,2668,Tewksbury,MA,01876,2
https://www.homedepot.com/l/The-Home-Depot-Pro/CA/Colma/94014/6655,The Home Depot Pro,6655,Colma,CA,94014,2
https://www.homedepot.com/l/Towson/MD/Parkville/21234/2504,Towson,2504,Parkville,MD,21234,2
https://www.homedepot.com/l/Troutdale/OR/Troutdale/97060/4014,Troutdale,4014,Troutdale,OR,97060,2
https://www.homedepot.com/l/Wade-Green/GA/Kennesaw/30144/1777,Wade Green,1777,Kennesaw,GA,30144,2
https://www.homedepot.com/l/Wauwatosa/WI/Wauwatosa/53222/4923,Wauwatosa,4923,Wauwatosa,WI,53222,2
https://www.homedepot.com/l/Wenatchee/WA/Wenatchee/98801/4732,Wenatchee,4732,Wenatchee,WA,98801,2
https://www.homedepot.com/l/West-Bell-Rd/AZ/Glendale/85308/459,West Bell Rd,459,Glendale,AZ,85308,2
https://www.homedepot.com/l/West-Broad/OH/Columbus/43228/3819,West Broad,3819,Columbus,OH,43228,3
https://www.homedepot.com/l/West-Katy/TX/Katy/77494/6107,West Katy,6107,Katy,TX,77494,2
https://www.homedepot.com/l/West-Niles/IL/Niles/60714/1981,West Niles,1981,Niles,IL,60714,2
