url,storeName,storeNumber,city,state,zip
https://www.homedepot.com/l/Aberdeen/WA/Aberdeen/98520/8964,Aberdeen,8964,Aberdeen,WA,98520
https://www.homedepot.com/l/Albany/NY/Albany/12205/1241,Albany,1241,Albany,NY,12205
https://www.homedepot.com/l/Albany/NY/Albany/12205/1262,Albany,1262,Albany,NY,12205
https://www.homedepot.com/l/Albany/OR/Albany/97322/4009,Albany,4009,Albany,OR,97322
https://www.homedepot.com/l/Allison-Park/PA/Allison-Park/15101/4152,Allison Park,4152,Allison Park,PA,15101
https://www.homedepot.com/l/Amarillo/TX/Amarillo/79124/6552,Amarillo,6552,Amarillo,TX,79124
https://www.homedepot.com/l/Amherst/NY/Amherst/14228/1233,Amherst,1233,Amherst,NY,14228
https://www.homedepot.com/l/Anaheim/CA/Anaheim/92801/6647,Anaheim,6647,Anaheim,CA,92801
https://www.homedepot.com/l/Anderson/SC/Anderson/29621/1105,Anderson,1105,Anderson,SC,29621
https://www.homedepot.com/l/Anna/TX/Anna/75409/597,Anna,597,Anna,TX,75409
https://www.homedepot.com/l/Antelope/CA/Sacramento/95842/6669,Antelope,6669,Sacramento,CA,95842
https://www.homedepot.com/l/Apple-Valley/CA/Apple-Valley/92308/6834,Apple Valley,6834,Apple Valley,CA,92308
https://www.homedepot.com/l/Arden-Arcade/CA/Sacramento/95825/6966,Arden Arcade,6966,Sacramento,CA,95825
https://www.homedepot.com/l/Ashtabula/OH/Ashtabula/44004/3838,Ashtabula,3838,Ashtabula,OH,44004
https://www.homedepot.com/l/Athens/GA/Athens/30606/129,Athens,129,Athens,GA,30606
https://www.homedepot.com/l/Atlantic-And-Girvin/FL/Jacksonville/32225/6365,Atlantic And Girvin,6365,Jacksonville,FL,32225
https://www.homedepot.com/l/Austintown/OH/Austintown/44515/3886,Austintown,3886,Austintown,OH,44515
https://www.homedepot.com/l/Avon/OH/Avon/44011/3835,Avon,3835,Avon,OH,44011
https://www.homedepot.com/l/Bainbridge/OH/Aurora/44202/6931,Bainbridge,6931,Aurora,OH,44202
https://www.homedepot.com/l/Bakersfield-Central/CA/Bakersfield/93309/1050,Bakersfield Central,1050,Bakersfield,CA,93309
https://www.homedepot.com/l/Bartlett-Stage-Rd/TN/Memphis/38128/737,Bartlett Stage Rd,737,Memphis,TN,38128
https://www.homedepot.com/l/Batavia/NY/Batavia/14020/6168,Batavia,6168,Batavia,NY,14020
https://www.homedepot.com/l/Bayshore/NY/Bay-Shore/11706/1211,Bayshore,1211,Bay Shore,NY,11706
https://www.homedepot.com/l/Beaumont/CA/Beaumont/92223/8987,Beaumont,8987,Beaumont,CA,92223
https://www.homedepot.com/l/Beaumont/TX/Beaumont/77703/501,Beaumont,501,Beaumont,TX,77703
https://www.homedepot.com/l/Beechmont/OH/Cincinnati/45255/3812,Beechmont,3812,Cincinnati,OH,45255
https://www.homedepot.com/l/Bellingham/WA/Bellingham/98226/4715,Bellingham,4715,Bellingham,WA,98226
https://www.homedepot.com/l/Bellport/NY/Bellport/11713/8958,Bellport,8958,Bellport,NY,11713
https://www.homedepot.com/l/Bettendorf/IA/Bettendorf/52722/2111,Bettendorf,2111,Bettendorf,IA,52722
https://www.homedepot.com/l/Biloxi/MS/Biloxi/39532/2910,Biloxi,2910,Biloxi,MS,39532
https://www.homedepot.com/l/Blairsville/GA/Blairsville/30512/1750,Blairsville,1750,Blairsville,GA,30512
https://www.homedepot.com/l/Blue-Ridge/GA/Blue-Ridge/30513/1771,Blue Ridge,1771,Blue Ridge,GA,30513
https://www.homedepot.com/l/Boardman/OH/Boardman/44512/3805,Boardman,3805,Boardman,OH,44512
https://www.homedepot.com/l/Bolingbrook/IL/Bolingbrook/60490/1939,Bolingbrook,1939,Bolingbrook,IL,60490
https://www.homedepot.com/l/Bonita-Springs/FL/Bonita-Springs/34135/6373,Bonita Springs,6373,Bonita Springs,FL,34135
https://www.homedepot.com/l/Boynton-Beach/FL/Boynton-Beach/33426/224,Boynton Beach,224,Boynton Beach,FL,33426
https://www.homedepot.com/l/Brenham/TX/Brenham/77833/8518,Brenham,8518,Brenham,TX,77833
https://www.homedepot.com/l/Bridgepoint/TX/Corpus-Christi/78415/6584,Bridgepoint,6584,Corpus Christi,TX,78415
https://www.homedepot.com/l/Bristol/VA/Bristol/24202/4658,Bristol,4658,Bristol,VA,24202
https://www.homedepot.com/l/Brooklyn/OH/Cleveland/44130/3806,Brooklyn,3806,Cleveland,OH,44130
https://www.homedepot.com/l/Brunswick/OH/Brunswick/44212/3875,Brunswick,3875,Brunswick,OH,44212
https://www.homedepot.com/l/Butler/PA/Butler/16001/4139,Butler,4139,Butler,PA,16001
https://www.homedepot.com/l/Camarillo/CA/Camarillo/93010/1012,Camarillo,1012,Camarillo,CA,93010
https://www.homedepot.com/l/Canon-City/CO/Canon-City/81212/1542,Canon City,1542,Canon City,CO,81212
https://www.homedepot.com/l/Cape-Coral/FL/Cape-Coral/33909/268,Cape Coral,268,Cape Coral,FL,33909
https://www.homedepot.com/l/Carmichael/CA/Carmichael/95608/650,Carmichael,650,Carmichael,CA,95608
https://www.homedepot.com/l/Carpentersville/IL/Carpentersville/60110/1948,Carpentersville,1948,Carpentersville,IL,60110
https://www.homedepot.com/l/Celebration-Station/VA/Virginia-Beach/23452/4614,Celebration Station,4614,Virginia Beach,VA,23452
https://www.homedepot.com/l/Centerline/TN/Knoxville/37917/731,Centerline,731,Knoxville,TN,37917
https://www.homedepot.com/l/Centerville/OH/Centerville/45459/3854,Centerville,3854,Centerville,OH,45459
https://www.homedepot.com/l/Central-Islip/NY/Central-Islip/11722/6955,Central Islip,6955,Central Islip,NY,11722
https://www.homedepot.com/l/Chalmette/LA/Chalmette/70043/373,Chalmette,373,Chalmette,LA,70043
https://www.homedepot.com/l/Chardon/OH/Chardon/44024/8981,Chardon,8981,Chardon,OH,44024
https://www.homedepot.com/l/Charleston/SC/Charleston/29406/1103,Charleston,1103,Charleston,SC,29406
https://www.homedepot.com/l/Cheektowaga/NY/Cheektowaga/14225/1228,Cheektowaga,1228,Cheektowaga,NY,14225
https://www.homedepot.com/l/Chesapeake/VA/Chesapeake/23320/4619,Chesapeake,4619,Chesapeake,VA,23320
https://www.homedepot.com/l/Chippewa/PA/Beaver-Falls/15010/4148,Chippewa,4148,Beaver Falls,PA,15010
https://www.homedepot.com/l/Clarence/NY/Williamsville/14221/1230,Clarence,1230,Williamsville,NY,14221
https://www.homedepot.com/l/Clarksville/IN/Clarksville/47129/2002,Clarksville,2002,Clarksville,IN,47129
https://www.homedepot.com/l/Clayton/GA/Clayton/30525/8412,Clayton,8412,Clayton,GA,30525
https://www.homedepot.com/l/Cleveland-Heights/OH/Cleveland-Heights/44118/3818,Cleveland Heights,3818,Cleveland Heights,OH,44118
https://www.homedepot.com/l/Clifton-Park/NY/Halfmoon/12065/1269,Clifton Park,1269,Halfmoon,NY,12065
https://www.homedepot.com/l/Clinton/IA/Clinton/52732/2113,Clinton,2113,Clinton,IA,52732
https://www.homedepot.com/l/Cold-Spring/KY/Cold-Spring/41076/2323,Cold Spring,2323,Cold Spring,KY,41076
https://www.homedepot.com/l/College-Station/TX/College-Station/77840/6559,College Station,6559,College Station,TX,77840
https://www.homedepot.com/l/Collierville/TN/Collierville/38017/729,Collierville,729,Collierville,TN,38017
https://www.homedepot.com/l/Colonial-Heights/VA/Colonial-Heights/23834/4633,Colonial Heights,4633,Colonial Heights,VA,23834
https://www.homedepot.com/l/Commerce/GA/Commerce/30529/1764,Commerce,1764,Commerce,GA,30529
https://www.homedepot.com/l/Copiague/NY/Copiague/11726/1218,Copiague,1218,Copiague,NY,11726
https://www.homedepot.com/l/Coram/NY/Coram/11727/1229,Coram,1229,Coram,NY,11727
https://www.homedepot.com/l/Cordova/TN/Memphis/38133/704,Cordova,704,Memphis,TN,38133
https://www.homedepot.com/l/Corona/CA/Corona/92879/601,Corona,601,Corona,CA,92879
https://www.homedepot.com/l/Corpus-Christi/TX/Corpus-Christi/78411/526,Corpus Christi,526,Corpus Christi,TX,78411
https://www.homedepot.com/l/Corsicana/TX/Corsicana/75109/6817,Corsicana,6817,Corsicana,TX,75109
https://www.homedepot.com/l/Corvallis/OR/Corvallis/97330/4029,Corvallis,4029,Corvallis,OR,97330
https://www.homedepot.com/l/Costa-Mesa/CA/Costa-Mesa/92626/6664,Costa Mesa,6664,Costa Mesa,CA,92626
https://www.homedepot.com/l/Covington/TN/Covington/38019/779,Covington,779,Covington,TN,38019
https://www.homedepot.com/l/Cranberry/PA/Cranberry-Township/16066/4135,Cranberry,4135,Cranberry Township,PA,16066
https://www.homedepot.com/l/Crescent-City/CA/Crescent-City/95531/8524,Crescent City,8524,Crescent City,CA,95531
https://www.homedepot.com/l/Crescent-Springs/KY/Crescent-Springs/41017/2324,Crescent Springs,2324,Crescent Springs,KY,41017
https://www.homedepot.com/l/Cross-County-Colerain/OH/Cincinnati/45251/3814,Cross County Colerain,3814,Cincinnati,OH,45251
https://www.homedepot.com/l/Crystal-River/FL/Crystal-River/34429/6332,Crystal River,6332,Crystal River,FL,34429
https://www.homedepot.com/l/Cuyahoga-Falls/OH/Cuyahoga-Falls/44221/3809,Cuyahoga Falls,3809,Cuyahoga Falls,OH,44221
https://www.homedepot.com/l/Dahlonega/GA/Dahlonega/30533/6980,Dahlonega,6980,Dahlonega,GA,30533
https://www.homedepot.com/l/Danbury/CT/Danbury/06811/6209,Danbury,6209,Danbury,CT,06811
https://www.homedepot.com/l/Daphne/AL/Daphne/36526/863,Daphne,863,Daphne,AL,36526
https://www.homedepot.com/l/Dawsonville/GA/Dawsonville/30534/174,Dawsonville,174,Dawsonville,GA,30534
https://www.homedepot.com/l/Deer-Park/NY/Deer-Park/11729/1285,Deer Park,1285,Deer Park,NY,11729
https://www.homedepot.com/l/Del-Rio/TX/Del-Rio/78840/6832,Del Rio,6832,Del Rio,TX,78840
https://www.homedepot.com/l/Delano/CA/Delano/93215/8426,Delano,8426,Delano,CA,93215
https://www.homedepot.com/l/Dixie-Highway/KY/Louisville/40258/2302,Dixie Highway,2302,Louisville,KY,40258
https://www.homedepot.com/l/Dover/NJ/Dover/07801/925,Dover,925,Dover,NJ,07801
https://www.homedepot.com/l/Dunkirk/NY/Dunkirk/14048/6169,Dunkirk,6169,Dunkirk,NY,14048
https://www.homedepot.com/l/E-Amarillo/TX/Amarillo/79109/6831,E Amarillo,6831,Amarillo,TX,79109
https://www.homedepot.com/l/E-Hamilton/OH/Hamilton/45011/3861,E Hamilton,3861,Hamilton,OH,45011
https://www.homedepot.com/l/E-Lansing/MI/Okemos/48864/2723,E Lansing,2723,Okemos,MI,48864
https://www.homedepot.com/l/Easley/SC/Easley/29640/6918,Easley,6918,Easley,SC,29640
https://www.homedepot.com/l/East-Brea/CA/Brea/92821/1072,East Brea,1072,Brea,CA,92821
https://www.homedepot.com/l/East-Charleston/SC/Charleston/29414/1118,East Charleston,1118,Charleston,SC,29414
https://www.homedepot.com/l/East-Delray-Beach/FL/Delray-Beach/33444/6315,East Delray Beach,6315,Delray Beach,FL,33444
https://www.homedepot.com/l/East-Irvine/CA/Irvine/92620/8525,East Irvine,8525,Irvine,CA,92620
https://www.homedepot.com/l/East-Liberty/PA/Pittsburgh/15206/4136,East Liberty,4136,Pittsburgh,PA,15206
https://www.homedepot.com/l/East-Lubbock/TX/Lubbock/79413/6827,East Lubbock,6827,Lubbock,TX,79413
https://www.homedepot.com/l/East-Northport/NY/Commack/11725/1202,East Northport,1202,Commack,NY,11725
https://www.homedepot.com/l/East-Palm-Beach-Lakes/FL/West-Palm-Beach/33401/6320,East Palm Beach Lakes,6320,West Palm Beach,FL,33401
https://www.homedepot.com/l/East-Palmdale/CA/Palmdale/93552/6883,East Palmdale,6883,Palmdale,CA,93552
https://www.homedepot.com/l/East-Savannah/GA/Savannah/31404/170,East Savannah,170,Savannah,GA,31404
https://www.homedepot.com/l/East-Spokane/WA/Spokane-Valley/99212/4714,East Spokane,4714,Spokane Valley,WA,99212
https://www.homedepot.com/l/Eastvale/CA/Mira-Loma/91752/1084,Eastvale,1084,Mira Loma,CA,91752
https://www.homedepot.com/l/El-Centro/CA/El-Centro/92243/1059,El Centro,1059,El Centro,CA,92243
https://www.homedepot.com/l/El-Dorado/AR/El-Dorado/71730/8537,El Dorado,8537,El Dorado,AR,71730
https://www.homedepot.com/l/El-Paso-Eastlake/TX/El-Paso/79928/428,El Paso Eastlake,428,El Paso,TX,79928
https://www.homedepot.com/l/El-Toro/CA/Lake-Forest/92630/1840,El Toro,1840,Lake Forest,CA,92630
https://www.homedepot.com/l/Elizabethtown/KY/Elizabethtown/42701/2316,Elizabethtown,2316,Elizabethtown,KY,42701
https://www.homedepot.com/l/Elyria/OH/Elyria/44035/3827,Elyria,3827,Elyria,OH,44035
https://www.homedepot.com/l/Erie/PA/Erie/16509/4124,Erie,4124,Erie,PA,16509
https://www.homedepot.com/l/Estero/FL/Fort-Myers/33912/3119,Estero,3119,Fort Myers,FL,33912
https://www.homedepot.com/l/Euclid/OH/Euclid/44119/3852,Euclid,3852,Euclid,OH,44119
https://www.homedepot.com/l/Eugene/OR/Eugene/97408/4003,Eugene,4003,Eugene,OR,97408
https://www.homedepot.com/l/Evansville/IN/Evansville/47715/2003,Evansville,2003,Evansville,IN,47715
https://www.homedepot.com/l/Fairlawn/OH/Fairlawn/44333/3841,Fairlawn,3841,Fairlawn,OH,44333
https://www.homedepot.com/l/Fayetteville/AR/Fayetteville/72703/1403,Fayetteville,1403,Fayetteville,AR,72703
https://www.homedepot.com/l/Fields-Ertel/OH/Mason/45040/3813,Fields Ertel,3813,Mason,OH,45040
https://www.homedepot.com/l/Five-Point/TX/Corpus-Christi/78410/6564,Five Point,6564,Corpus Christi,TX,78410
https://www.homedepot.com/l/Fleming-Island/FL/Orange-Park/32003/6369,Fleming Island,6369,Orange Park,FL,32003
https://www.homedepot.com/l/Florence/SC/Florence/29501/8580,Florence,8580,Florence,SC,29501
https://www.homedepot.com/l/Florin-Rd/CA/Sacramento/95823/651,Florin Rd,651,Sacramento,CA,95823
https://www.homedepot.com/l/Foley/AL/Foley/36535/802,Foley,802,Foley,AL,36535
https://www.homedepot.com/l/Folsom/CA/Folsom/95630/6675,Folsom,6675,Folsom,CA,95630
https://www.homedepot.com/l/Forest-Park/OH/Cincinnati/45240/3821,Forest Park,3821,Cincinnati,OH,45240
https://www.homedepot.com/l/Fort-Myers/FL/Fort-Myers/33912/276,Fort Myers,276,Fort Myers,FL,33912
https://www.homedepot.com/l/Fort-Smith/AR/Fort-Smith/72903/1404,Fort Smith,1404,Fort Smith,AR,72903
https://www.homedepot.com/l/Fredericksburg/VA/Fredericksburg/22401/4620,Fredericksburg,4620,Fredericksburg,VA,22401
https://www.homedepot.com/l/Ft-Myers-East/FL/Fort-Myers/33905/8444,Ft Myers East,8444,Fort Myers,FL,33905
https://www.homedepot.com/l/Ft-Pierce/FL/Fort-Pierce/34947/283,Ft Pierce,283,Fort Pierce,FL,34947
https://www.homedepot.com/l/Fullerton-Relo-682/CA/Fullerton/92831/6893,Fullerton Relo 682,6893,Fullerton,CA,92831
https://www.homedepot.com/l/Gainesville-Ne/FL/Gainesville/32609/1854,Gainesville Ne,1854,Gainesville,FL,32609
https://www.homedepot.com/l/Gainesville/FL/Gainesville/32607/270,Gainesville,270,Gainesville,FL,32607
https://www.homedepot.com/l/Gainesville/TX/Gainesville/76240/519,Gainesville,519,Gainesville,TX,76240
https://www.homedepot.com/l/Gates/NY/Rochester/14624/1278,Gates,1278,Rochester,NY,14624
https://www.homedepot.com/l/General-Booth/VA/Virginia-Beach/23456/4643,General Booth,4643,Virginia Beach,VA,23456
https://www.homedepot.com/l/Geneva/IL/Geneva/60134/1921,Geneva,1921,Geneva,IL,60134
https://www.homedepot.com/l/Glendora/CA/Glendora/91740/6617,Glendora,6617,Glendora,CA,91740
https://www.homedepot.com/l/Gloucester/VA/Gloucester/23061/4650,Gloucester,4650,Gloucester,VA,23061
https://www.homedepot.com/l/Goleta/CA/Goleta/93117/6623,Goleta,6623,Goleta,CA,93117
https://www.homedepot.com/l/Granbury/TX/Granbury/76048/6571,Granbury,6571,Granbury,TX,76048
https://www.homedepot.com/l/Grants-Pass/OR/Grants-Pass/97526/4034,Grants Pass,4034,Grants Pass,OR,97526
https://www.homedepot.com/l/Greece/NY/Greece/14615/1244,Greece,1244,Greece,NY,14615
https://www.homedepot.com/l/Greenfield/MA/Greenfield/01301/2619,Greenfield,2619,Greenfield,MA,01301
https://www.homedepot.com/l/Greensburg/PA/Greensburg/15601/4126,Greensburg,4126,Greensburg,PA,15601
https://www.homedepot.com/l/Greenville/SC/Greenville/29607/1119,Greenville,1119,Greenville,SC,29607
https://www.homedepot.com/l/Greenville/TX/Greenville/75402/6554,Greenville,6554,Greenville,TX,75402
https://www.homedepot.com/l/Greer/SC/Greer/29650/1126,Greer,1126,Greer,SC,29650
https://www.homedepot.com/l/Gulfport/MS/Gulfport/39503/2901,Gulfport,2901,Gulfport,MS,39503
https://www.homedepot.com/l/Gurnee/IL/Gurnee/60031/1922,Gurnee,1922,Gurnee,IL,60031
https://www.homedepot.com/l/Hackettstown/NJ/Hackettstown/07840/953,Hackettstown,953,Hackettstown,NJ,07840
https://www.homedepot.com/l/Hadley/MA/Hadley/01035/8452,Hadley,8452,Hadley,MA,01035
https://www.homedepot.com/l/Hamburg/NY/Buffalo/14219/1286,Hamburg,1286,Buffalo,NY,14219
https://www.homedepot.com/l/Hampton/VA/Hampton/23666/4612,Hampton,4612,Hampton,VA,23666
https://www.homedepot.com/l/Harrison/OH/Harrison/45030/3863,Harrison,3863,Harrison,OH,45030
https://www.homedepot.com/l/Hartwell/GA/Hartwell/30643/1748,Hartwell,1748,Hartwell,GA,30643
https://www.homedepot.com/l/Hemet/CA/Hemet/92545/6637,Hemet,6637,Hemet,CA,92545
https://www.homedepot.com/l/Hempstead/NY/Hempstead/11550/1274,Hempstead,1274,Hempstead,NY,11550
https://www.homedepot.com/l/Hendersonville/NC/Hendersonville/28792/3637,Hendersonville,3637,Hendersonville,NC,28792
https://www.homedepot.com/l/Henrietta/NY/Rochester/14623/1246,Henrietta,1246,Rochester,NY,14623
https://www.homedepot.com/l/Hermiston/OR/Hermiston/97838/4031,Hermiston,4031,Hermiston,OR,97838
https://www.homedepot.com/l/Hermitage/PA/Hermitage/16148/4130,Hermitage,4130,Hermitage,PA,16148
https://www.homedepot.com/l/Hickory-Hill/TN/Memphis/38115/725,Hickory Hill,725,Memphis,TN,38115
https://www.homedepot.com/l/Highland-Heights/OH/Highland-Heights/44143/3842,Highland Heights,3842,Highland Heights,OH,44143
https://www.homedepot.com/l/Hilton-Head/SC/Bluffton/29910/1115,Hilton Head,1115,Bluffton,SC,29910
https://www.homedepot.com/l/Hobbs/NM/Hobbs/88240/3515,Hobbs,3515,Hobbs,NM,88240
https://www.homedepot.com/l/Huntington-Beach/CA/Huntington-Beach/92646/6963,Huntington Beach,6963,Huntington Beach,CA,92646
https://www.homedepot.com/l/Huntington/NY/Huntington/11743/1272,Huntington,1272,Huntington,NY,11743
https://www.homedepot.com/l/Huntsville/TX/Huntsville/77320/6578,Huntsville,6578,Huntsville,TX,77320
https://www.homedepot.com/l/Hyannis/MA/Hyannis/02601/2612,Hyannis,2612,Hyannis,MA,02601
https://www.homedepot.com/l/I-10-Bullard/LA/New-Orleans/70128/352,I 10 Bullard,352,New Orleans,LA,70128
https://www.homedepot.com/l/Indio/CA/Indio/92203/6874,Indio,6874,Indio,CA,92203
https://www.homedepot.com/l/Intown-Richmond/VA/Richmond/23230/4632,Intown Richmond,4632,Richmond,VA,23230
https://www.homedepot.com/l/Irondequoit/NY/Rochester/14621/1273,Irondequoit,1273,Rochester,NY,14621
https://www.homedepot.com/l/Jackson/TN/Jackson/38305/727,Jackson,727,Jackson,TN,38305
https://www.homedepot.com/l/Jacksonville-Beach/FL/Jacksonville-Beach/32250/6974,Jacksonville Beach,6974,Jacksonville Beach,FL,32250
https://www.homedepot.com/l/Jacksonville-Lane-Ave/FL/Jacksonville/32205/6346,Jacksonville Lane Ave,6346,Jacksonville,FL,32205
https://www.homedepot.com/l/Jacksonville-W-Oakleaf/FL/Jacksonville/32222/6890,Jacksonville W Oakleaf,6890,Jacksonville,FL,32222
https://www.homedepot.com/l/Jacksonville/NC/Jacksonville/28546/3655,Jacksonville,3655,Jacksonville,NC,28546
https://www.homedepot.com/l/Jamestown/NY/Jamestown/14701/6154,Jamestown,6154,Jamestown,NY,14701
https://www.homedepot.com/l/Jasper/IN/Jasper/47546/2025,Jasper,2025,Jasper,IN,47546
https://www.homedepot.com/l/Jensen-Beach/FL/Jensen-Beach/34957/221,Jensen Beach,221,Jensen Beach,FL,34957
https://www.homedepot.com/l/Johnson-City/TN/Johnson-City/37604/701,Johnson City,701,Johnson City,TN,37604
https://www.homedepot.com/l/Joliet/IL/Joliet/60435/1962,Joliet,1962,Joliet,IL,60435
https://www.homedepot.com/l/Jonesboro/AR/Jonesboro/72404/1406,Jonesboro,1406,Jonesboro,AR,72404
https://www.homedepot.com/l/Joplin/MO/Joplin/64801/3042,Joplin,3042,Joplin,MO,64801
https://www.homedepot.com/l/Juneau/AK/Juneau/99801/8939,Juneau,8939,Juneau,AK,99801
https://www.homedepot.com/l/Jupiter/FL/Jupiter/33458/274,Jupiter,274,Jupiter,FL,33458
https://www.homedepot.com/l/Kenai/AK/Kenai/99611/8938,Kenai,8938,Kenai,AK,99611
https://www.homedepot.com/l/Key-West/FL/Key-West/33040/6313,Key West,6313,Key West,FL,33040
https://www.homedepot.com/l/Kingman/AZ/Kingman/86409/416,Kingman,416,Kingman,AZ,86409
https://www.homedepot.com/l/Kingsport/TN/Kingsport/37660/702,Kingsport,702,Kingsport,TN,37660
https://www.homedepot.com/l/Kitty-Hawk/NC/Kitty-Hawk/27949/3650,Kitty Hawk,3650,Kitty Hawk,NC,27949
https://www.homedepot.com/l/Kona/HI/Kailua-Kona/96740/1704,Kona,1704,Kailua Kona,HI,96740
https://www.homedepot.com/l/La-Crosse/WI/Onalaska/54650/4905,La Crosse,4905,Onalaska,WI,54650
https://www.homedepot.com/l/La-Quinta/CA/La-Quinta/92253/6630,La Quinta,6630,La Quinta,CA,92253
https://www.homedepot.com/l/Laguna-Hills/CA/Laguna-Hills/92637/6628,Laguna Hills,6628,Laguna Hills,CA,92637
https://www.homedepot.com/l/Laguna-Niguel/CA/Laguna-Niguel/92677/1077,Laguna Niguel,1077,Laguna Niguel,CA,92677
https://www.homedepot.com/l/Lake-City/FL/Lake-City/32025/6864,Lake City,6864,Lake City,FL,32025
https://www.homedepot.com/l/Lake-Elsinore/CA/Lake-Elsinore/92530/8988,Lake Elsinore,8988,Lake Elsinore,CA,92530
https://www.homedepot.com/l/Lake-Forest/CA/Lake-Forest/92630/6668,Lake Forest,6668,Lake Forest,CA,92630
https://www.homedepot.com/l/Lake-Jackson/TX/Lake-Jackson/77566/6517,Lake Jackson,6517,Lake Jackson,TX,77566
https://www.homedepot.com/l/Lake-Park/FL/Lake-Park/33403/220,Lake Park,220,Lake Park,FL,33403
https://www.homedepot.com/l/Lake-Worth-II/FL/Lake-Worth/33467/6316,Lake Worth II,6316,Lake Worth,FL,33467
https://www.homedepot.com/l/Lake-Worth/FL/Lake-Worth/33461/205,Lake Worth,205,Lake Worth,FL,33461
https://www.homedepot.com/l/Lancaster/CA/Lancaster/93534/6651,Lancaster,6651,Lancaster,CA,93534
https://www.homedepot.com/l/Lantana/FL/Lantana/33462/3118,Lantana,3118,Lantana,FL,33462
https://www.homedepot.com/l/Lapeer/MI/Lapeer/48446/2736,Lapeer,2736,Lapeer,MI,48446
https://www.homedepot.com/l/Laredo/TX/Laredo/78041/6540,Laredo,6540,Laredo,TX,78041
https://www.homedepot.com/l/Las-Cruces/NM/Las-Cruces/88011/3505,Las Cruces,3505,Las Cruces,NM,88011
https://www.homedepot.com/l/Latham/NY/Latham/12110/1259,Latham,1259,Latham,NY,12110
https://www.homedepot.com/l/Lebanon/OH/Lebanon/45036/3868,Lebanon,3868,Lebanon,OH,45036
https://www.homedepot.com/l/Lenoir-City/TN/Lenoir-City/37772/740,Lenoir City,740,Lenoir City,TN,37772
https://www.homedepot.com/l/Liberty-Lake/WA/Liberty-Lake/99019/4743,Liberty Lake,4743,Liberty Lake,WA,99019
https://www.homedepot.com/l/Lihue-Kauai/HI/Lihue/96766/1705,Lihue Kauai,1705,Lihue,HI,96766
https://www.homedepot.com/l/Lincoln/CA/Lincoln/95648/8571,Lincoln,8571,Lincoln,CA,95648
https://www.homedepot.com/l/Lockport/NY/Lockport/14094/1268,Lockport,1268,Lockport,NY,14094
https://www.homedepot.com/l/Lodi/CA/Lodi/95240/6660,Lodi,6660,Lodi,CA,95240
https://www.homedepot.com/l/Longview/TX/Longview/75605/6545,Longview,6545,Longview,TX,75605
https://www.homedepot.com/l/Lorain/OH/Lorain/44053/6930,Lorain,6930,Lorain,OH,44053
https://www.homedepot.com/l/Lubbock/TX/Lubbock/79414/505,Lubbock,505,Lubbock,TX,79414
https://www.homedepot.com/l/Lufkin/TX/Lufkin/75901/513,Lufkin,513,Lufkin,TX,75901
https://www.homedepot.com/l/Macedonia/OH/Macedonia/44056/3824,Macedonia,3824,Macedonia,OH,44056
https://www.homedepot.com/l/Machesney-Park/IL/Machesney-Park/61115/1956,Machesney Park,1956,Machesney Park,IL,61115
https://www.homedepot.com/l/Mandarin/FL/Jacksonville/32257/6318,Mandarin,6318,Jacksonville,FL,32257
https://www.homedepot.com/l/Manteca/CA/Manteca/95336/1006,Manteca,1006,Manteca,CA,95336
https://www.homedepot.com/l/Maple-Heights/OH/Maple-Heights/44137/3804,Maple Heights,3804,Maple Heights,OH,44137
https://www.homedepot.com/l/Marathon/FL/Marathon/33050/6302,Marathon,6302,Marathon,FL,33050
https://www.homedepot.com/l/Marion/IL/Marion/62959/1979,Marion,1979,Marion,IL,62959
https://www.homedepot.com/l/Maryville/TN/Maryville/37801/724,Maryville,724,Maryville,TN,37801
https://www.homedepot.com/l/Massena/NY/Massena/13662/8996,Massena,8996,Massena,NY,13662
https://www.homedepot.com/l/Matamoras/PA/Matamoras/18336/4162,Matamoras,4162,Matamoras,PA,18336
https://www.homedepot.com/l/Mattoon/IL/Mattoon/61938/1967,Mattoon,1967,Mattoon,IL,61938
https://www.homedepot.com/l/Mchenry/IL/Mchenry/60051/1969,Mchenry,1969,Mchenry,IL,60051
https://www.homedepot.com/l/Meadville/PA/Meadville/16335/4169,Meadville,4169,Meadville,PA,16335
https://www.homedepot.com/l/Mechanicsville/VA/Mechanicsville/23111/4624,Mechanicsville,4624,Mechanicsville,VA,23111
https://www.homedepot.com/l/Mentor/OH/Mentor/44060/3815,Mentor,3815,Mentor,OH,44060
https://www.homedepot.com/l/Merrifield/VA/Fairfax/22031/4605,Merrifield,4605,Fairfax,VA,22031
https://www.homedepot.com/l/Miamisburg/OH/Dayton/45449/3857,Miamisburg,3857,Dayton,OH,45449
https://www.homedepot.com/l/Middleburg/FL/Middleburg/32068/6935,Middleburg,6935,Middleburg,FL,32068
https://www.homedepot.com/l/Midland/TX/Midland/79707/561,Midland,561,Midland,TX,79707
https://www.homedepot.com/l/Midlothian/VA/Richmond/23235/4631,Midlothian,4631,Richmond,VA,23235
https://www.homedepot.com/l/Milford/OH/Milford/45150/3844,Milford,3844,Milford,OH,45150
https://www.homedepot.com/l/Military-Circle/VA/Norfolk/23502/4615,Military Circle,4615,Norfolk,VA,23502
https://www.homedepot.com/l/Mission-Viejo/CA/Mission-Viejo/92692/614,Mission Viejo,614,Mission Viejo,CA,92692
https://www.homedepot.com/l/Mobile/AL/Mobile/36609/865,Mobile,865,Mobile,AL,36609
https://www.homedepot.com/l/Monroe/GA/Monroe/30655/1774,Monroe,1774,Monroe,GA,30655
https://www.homedepot.com/l/Montgomery/TX/Montgomery/77356/1349,Montgomery,1349,Montgomery,TX,77356
https://www.homedepot.com/l/Moreno-Valley-II/CA/Moreno-Valley/92551/1087,Moreno Valley II,1087,Moreno Valley,CA,92551
https://www.homedepot.com/l/Moreno-Valley/CA/Moreno-Valley/92557/616,Moreno Valley,616,Moreno Valley,CA,92557
https://www.homedepot.com/l/Morristown/TN/Morristown/37814/744,Morristown,744,Morristown,TN,37814
https://www.homedepot.com/l/Mount-Pleasant/TX/Mount-Pleasant/75455/8540,Mount Pleasant,8540,Mount Pleasant,TX,75455
https://www.homedepot.com/l/Mt-Pleasant/SC/Mount-Pleasant/29466/1171,Mt Pleasant,1171,Mount Pleasant,SC,29466
https://www.homedepot.com/l/Murrells-Inlet/SC/Murrells-Inlet/29576/1122,Murrells Inlet,1122,Murrells Inlet,SC,29576
https://www.homedepot.com/l/Murrieta-North/CA/Murrieta/92562/6113,Murrieta North,6113,Murrieta,CA,92562
https://www.homedepot.com/l/Murrieta/CA/Murrieta/92562/668,Murrieta,668,Murrieta,CA,92562
https://www.homedepot.com/l/Myrtle-Beach/SC/Myrtle-Beach/29577/1116,Myrtle Beach,1116,Myrtle Beach,SC,29577
https://www.homedepot.com/l/Myrtle-Grove/NC/Wilmington/28412/3609,Myrtle Grove,3609,Wilmington,NC,28412
https://www.homedepot.com/l/NE-Bakersfield/CA/Bakersfield/93306/1060,NE Bakersfield,1060,Bakersfield,CA,93306
https://www.homedepot.com/l/NW-Bakersfield/CA/Bakersfield/93312/1064,NW Bakersfield,1064,Bakersfield,CA,93312
https://www.homedepot.com/l/NW-Victorville/CA/Victorville/92394/1844,NW Victorville,1844,Victorville,CA,92394
https://www.homedepot.com/l/Naples/FL/Naples/34109/280,Naples,280,Naples,FL,34109
https://www.homedepot.com/l/New-Albany/IN/New-Albany/47150/2016,New Albany,2016,New Albany,IN,47150
https://www.homedepot.com/l/Newhall/CA/Santa-Clarita/91355/1055,Newhall,1055,Santa Clarita,CA,91355
https://www.homedepot.com/l/Newport-News/VA/Newport-News/23602/4613,Newport News,4613,Newport News,VA,23602
https://www.homedepot.com/l/Newton/NJ/Newton/07860/984,Newton,984,Newton,NJ,07860
https://www.homedepot.com/l/Niagara-Falls/NY/Niagara-Falls/14304/1287,Niagara Falls,1287,Niagara Falls,NY,14304
https://www.homedepot.com/l/Niles/OH/Warren/44484/3808,Niles,3808,Warren,OH,44484
https://www.homedepot.com/l/North-Buffalo/NY/Buffalo/14207/1234,North Buffalo,1234,Buffalo,NY,14207
https://www.homedepot.com/l/North-Fayette/PA/Pittsburgh/15275/4117,North Fayette,4117,Pittsburgh,PA,15275
https://www.homedepot.com/l/North-Flint/MI/Flushing/48433/2765,North Flint,2765,Flushing,MI,48433
https://www.homedepot.com/l/North-Fontana/CA/Fontana/92336/6960,North Fontana,6960,Fontana,CA,92336
https://www.homedepot.com/l/North-Frisco/TX/Frisco/75033/6513,North Frisco,6513,Frisco,TX,75033
https://www.homedepot.com/l/North-Greenbush/NY/Rensselaer/12144/1263,North Greenbush,1263,Rensselaer,NY,12144
https://www.homedepot.com/l/North-Greenville/SC/Greenville/29609/1104,North Greenville,1104,Greenville,SC,29609
https://www.homedepot.com/l/North-Jacksonville/FL/Jacksonville/32218/6351,North Jacksonville,6351,Jacksonville,FL,32218
https://www.homedepot.com/l/North-Knoxville/TN/Knoxville/37921/728,North Knoxville,728,Knoxville,TN,37921
https://www.homedepot.com/l/North-Myrtle-Beach/SC/North-Myrtle-Beach/29582/1121,North Myrtle Beach,1121,North Myrtle Beach,SC,29582
https://www.homedepot.com/l/North-Olmsted/OH/North-Olmsted/44070/3803,North Olmsted,3803,North Olmsted,OH,44070
https://www.homedepot.com/l/North-Tucson-Oro-Valley/AZ/Oro-Valley/85737/481,North Tucson Oro Valley,481,Oro Valley,AZ,85737
https://www.homedepot.com/l/North-Tulsa/OK/Tulsa/74120/3904,North Tulsa,3904,Tulsa,OK,74120
https://www.homedepot.com/l/North-Upland/CA/Upland/91784/1083,North Upland,1083,Upland,CA,91784
https://www.homedepot.com/l/North-Versailles/PA/North-Versailles/15137/4156,North Versailles,4156,North Versailles,PA,15137
https://www.homedepot.com/l/North-Windham/ME/Windham/04062/2412,North Windham,2412,Windham,ME,04062
https://www.homedepot.com/l/Oak-Ridge/TN/Oak-Ridge/37830/736,Oak Ridge,736,Oak Ridge,TN,37830
https://www.homedepot.com/l/Ocala/FL/Ocala/34474/253,Ocala,253,Ocala,FL,34474
https://www.homedepot.com/l/Odessa/TX/Odessa/79762/562,Odessa,562,Odessa,TX,79762
https://www.homedepot.com/l/Ohio-Township/PA/Pittsburgh/15237/4123,Ohio Township,4123,Pittsburgh,PA,15237
https://www.homedepot.com/l/Oil-City/PA/Franklin/16323/4178,Oil City,4178,Franklin,PA,16323
https://www.homedepot.com/l/Olive-Branch/MS/Olive-Branch/38654/8469,Olive Branch,8469,Olive Branch,MS,38654
https://www.homedepot.com/l/Ontario/CA/Ontario/91762/6884,Ontario,6884,Ontario,CA,91762
https://www.homedepot.com/l/Orange-K/CA/Orange/92865/6965,Orange K,6965,Orange,CA,92865
https://www.homedepot.com/l/Orange-Park/FL/Orange-Park/32073/275,Orange Park,275,Orange Park,FL,32073
https://www.homedepot.com/l/Oswego/IL/Oswego/60543/1975,Oswego,1975,Oswego,IL,60543
https://www.homedepot.com/l/Owasso/OK/Owasso/74055/8922,Owasso,8922,Owasso,OK,74055
https://www.homedepot.com/l/Owensboro/KY/Owensboro/42301/2317,Owensboro,2317,Owensboro,KY,42301
https://www.homedepot.com/l/Oxford/MS/Oxford/38655/2914,Oxford,2914,Oxford,MS,38655
https://www.homedepot.com/l/Oxnard/CA/Oxnard/93036/1040,Oxnard,1040,Oxnard,CA,93036
https://www.homedepot.com/l/Paducah/KY/Paducah/42001/2314,Paducah,2314,Paducah,KY,42001
https://www.homedepot.com/l/Palatka/FL/Palatka/32177/8531,Palatka,8531,Palatka,FL,32177
https://www.homedepot.com/l/Palm-Beach-Gardens/FL/Palm-Beach-Gardens/33418/3117,Palm Beach Gardens,3117,Palm Beach Gardens,FL,33418
https://www.homedepot.com/l/Palm-Coast/FL/Palm-Coast/32137/6363,Palm Coast,6363,Palm Coast,FL,32137
https://www.homedepot.com/l/Palm-Springs/CA/Palm-Springs/92264/8526,Palm Springs,8526,Palm Springs,CA,92264
https://www.homedepot.com/l/Palmdale/CA/Palmdale/93551/638,Palmdale,638,Palmdale,CA,93551
https://www.homedepot.com/l/Paris/TX/Paris/75460/6566,Paris,6566,Paris,TX,75460
https://www.homedepot.com/l/Patchogue-West/NY/Patchogue/11772/1258,Patchogue West,1258,Patchogue,NY,11772
https://www.homedepot.com/l/Penfield--Rochester/NY/Rochester/14625/1247,Penfield Rochester,1247,Rochester,NY,14625
https://www.homedepot.com/l/Perris/CA/Perris/92570/6875,Perris,6875,Perris,CA,92570
https://www.homedepot.com/l/Phillipsburg/NJ/Phillipsburg/08865/931,Phillipsburg,931,Phillipsburg,NJ,08865
https://www.homedepot.com/l/Picayune/MS/Picayune/39466/2915,Picayune,2915,Picayune,MS,39466
https://www.homedepot.com/l/Piqua/OH/Piqua/45356/3862,Piqua,3862,Piqua,OH,45356
https://www.homedepot.com/l/Pittsfield/MA/Pittsfield/01201/2683,Pittsfield,2683,Pittsfield,MA,01201
https://www.homedepot.com/l/Pleasant-Ridge/OH/Cincinnati/45213/3832,Pleasant Ridge,3832,Cincinnati,OH,45213
https://www.homedepot.com/l/Poplar-Midtown/TN/Memphis/38104/8916,Poplar Midtown,8916,Memphis,TN,38104
https://www.homedepot.com/l/Port-St-Lucie-South/FL/Port-Saint-Lucie/34953/6934,Port St Lucie South,6934,Port Saint Lucie,FL,34953
https://www.homedepot.com/l/Portland/ME/Portland/04103/2401,Portland,2401,Portland,ME,04103
https://www.homedepot.com/l/Portsmouth/VA/Chesapeake/23321/4622,Portsmouth,4622,Chesapeake,VA,23321
https://www.homedepot.com/l/Pueblo/CO/Pueblo/81008/1511,Pueblo,1511,Pueblo,CO,81008
https://www.homedepot.com/l/Quincy/IL/Quincy/62305/1915,Quincy,1915,Quincy,IL,62305
https://www.homedepot.com/l/Rancho-Cordova/CA/Rancho-Cordova/95742/652,Rancho Cordova,652,Rancho Cordova,CA,95742
https://www.homedepot.com/l/Rancho-Cucamonga/CA/Rancho-Cucamonga/91730/645,Rancho Cucamonga,645,Rancho Cucamonga,CA,91730
https://www.homedepot.com/l/Rancho-Mirage/CA/Rancho-Mirage/92270/667,Rancho Mirage,667,Rancho Mirage,CA,92270
https://www.homedepot.com/l/Ranson/WV/Ranson/25438/4805,Ranson,4805,Ranson,WV,25438
https://www.homedepot.com/l/Redlands/CA/Redlands/92374/1013,Redlands,1013,Redlands,CA,92374
https://www.homedepot.com/l/Regency-Square/FL/Jacksonville/32225/272,Regency Square,272,Jacksonville,FL,32225
https://www.homedepot.com/l/Rialto/CA/Rialto/92376/6683,Rialto,6683,Rialto,CA,92376
https://www.homedepot.com/l/Richmond-W-Broad/VA/Glen-Allen/23060/4611,Richmond W Broad,4611,Glen Allen,VA,23060
https://www.homedepot.com/l/Riverside/CA/Riverside/92504/6619,Riverside,6619,Riverside,CA,92504
https://www.homedepot.com/l/Rocky-River/OH/Rocky-River/44116/3847,Rocky River,3847,Rocky River,OH,44116
https://www.homedepot.com/l/Rogers/AR/Rogers/72758/8445,Rogers,8445,Rogers,AR,72758
https://www.homedepot.com/l/Roseburg/OR/Roseburg/97470/4020,Roseburg,4020,Roseburg,OR,97470
https://www.homedepot.com/l/Roseville/CA/Roseville/95661/636,Roseville,636,Roseville,CA,95661
https://www.homedepot.com/l/Ross-Township/PA/Pittsburgh/15237/4159,Ross Township,4159,Pittsburgh,PA,15237
https://www.homedepot.com/l/Rossford/OH/Rossford/43460/3858,Rossford,3858,Rossford,OH,43460
https://www.homedepot.com/l/Royal-Palm/FL/West-Palm-Beach/33414/6379,Royal Palm,6379,West Palm Beach,FL,33414
https://www.homedepot.com/l/SE-Knoxville/TN/Knoxville/37920/773,SE Knoxville,773,Knoxville,TN,37920
https://www.homedepot.com/l/SW-Bakersfield/CA/Bakersfield/93313/6687,SW Bakersfield,6687,Bakersfield,CA,93313
https://www.homedepot.com/l/SW-Greenville/SC/Greenville/29605/1127,SW Greenville,1127,Greenville,SC,29605
https://www.homedepot.com/l/SW-Richmond/VA/Midlothian/23112/4627,SW Richmond,4627,Midlothian,VA,23112
https://www.homedepot.com/l/SW-Tulsa/OK/Tulsa/74137/3915,SW Tulsa,3915,Tulsa,OK,74137
https://www.homedepot.com/l/Salem/OH/Salem/44460/3877,Salem,3877,Salem,OH,44460
https://www.homedepot.com/l/San-Bernardino/CA/San-Bernardino/92405/683,San Bernardino,683,San Bernardino,CA,92405
https://www.homedepot.com/l/Sandpoint/ID/Ponderay/83852/1810,Sandpoint,1810,Ponderay,ID,83852
https://www.homedepot.com/l/Sandusky/OH/Sandusky/44870/3866,Sandusky,3866,Sandusky,OH,44870
https://www.homedepot.com/l/Santa-Ana/CA/Santa-Ana/92704/606,Santa Ana,606,Santa Ana,CA,92704
https://www.homedepot.com/l/Santa-Clarita/CA/Santa-Clarita/91351/653,Santa Clarita,653,Santa Clarita,CA,91351
https://www.homedepot.com/l/Santa-Rosa/CA/Santa-Rosa/95403/1379,Santa Rosa,1379,Santa Rosa,CA,95403
https://www.homedepot.com/l/Savannah/GA/Savannah/31419/122,Savannah,122,Savannah,GA,31419
https://www.homedepot.com/l/Schenectady/NY/Schenectady/12304/1239,Schenectady,1239,Schenectady,NY,12304
https://www.homedepot.com/l/Sebastian/FL/Sebastian/32958/8545,Sebastian,8545,Sebastian,FL,32958
https://www.homedepot.com/l/Selden/NY/Selden/11784/1209,Selden,1209,Selden,NY,11784
https://www.homedepot.com/l/Seneca/NY/West-Seneca/14224/1231,Seneca,1231,West Seneca,NY,14224
https://www.homedepot.com/l/Seneca/SC/Seneca/29678/1130,Seneca,1130,Seneca,SC,29678
https://www.homedepot.com/l/Sevierville/TN/Sevierville/37876/739,Sevierville,739,Sevierville,TN,37876
https://www.homedepot.com/l/Shallotte/NC/Shallotte/28470/3648,Shallotte,3648,Shallotte,NC,28470
https://www.homedepot.com/l/Sherman/TX/Sherman/75092/518,Sherman,518,Sherman,TX,75092
https://www.homedepot.com/l/Shirley/NY/Shirley/11967/1282,Shirley,1282,Shirley,NY,11967
https://www.homedepot.com/l/Shreveport/LA/Shreveport/71106/356,Shreveport,356,Shreveport,LA,71106
https://www.homedepot.com/l/Simi-Valley/CA/Simi-Valley/93065/6640,Simi Valley,6640,Simi Valley,CA,93065
https://www.homedepot.com/l/Simpsonville/SC/Simpsonville/29680/1124,Simpsonville,1124,Simpsonville,SC,29680
https://www.homedepot.com/l/Slidell-East/LA/Slidell/70461/386,Slidell East,386,Slidell,LA,70461
https://www.homedepot.com/l/Slidell/LA/Slidell/70460/365,Slidell,365,Slidell,LA,70460
https://www.homedepot.com/l/Smithtown/NY/Commack/11725/6167,Smithtown,6167,Commack,NY,11725
https://www.homedepot.com/l/South-Cape-Coral/FL/Cape-Coral/33914/6975,South Cape Coral,6975,Cape Coral,FL,33914
https://www.homedepot.com/l/South-Chesapeake/VA/Chesapeake/23322/4656,South Chesapeake,4656,Chesapeake,VA,23322
https://www.homedepot.com/l/South-Chino/CA/Chino/91710/6876,South Chino,6876,Chino,CA,91710
https://www.homedepot.com/l/South-Corona/CA/Corona/92881/6665,South Corona,6665,Corona,CA,92881
https://www.homedepot.com/l/South-Elgin/IL/South-Elgin/60177/6923,South Elgin,6923,South Elgin,IL,60177
https://www.homedepot.com/l/South-Fontana/CA/Fontana/92337/1857,South Fontana,1857,Fontana,CA,92337
https://www.homedepot.com/l/South-Naples/FL/Naples/34112/6348,South Naples,6348,Naples,FL,34112
https://www.homedepot.com/l/South-Portland/ME/South-Portland/04106/2406,South Portland,2406,South Portland,ME,04106
https://www.homedepot.com/l/South-Richmond-Chester/VA/Chester/23831/4616,South Richmond Chester,4616,Chester,VA,23831
https://www.homedepot.com/l/South-San-Bernardino/CA/San-Bernardino/92408/610,South San Bernardino,610,San Bernardino,CA,92408
https://www.homedepot.com/l/South-Tulsa/OK/Tulsa/74133/3903,South Tulsa,3903,Tulsa,OK,74133
https://www.homedepot.com/l/Southaven/MS/Horn-Lake/38637/2903,Southaven,2903,Horn Lake,MS,38637
https://www.homedepot.com/l/Southside/FL/Jacksonville/32256/226,Southside,226,Jacksonville,FL,32256
https://www.homedepot.com/l/Spartanburg/SC/Spartanburg/29301/1129,Spartanburg,1129,Spartanburg,SC,29301
https://www.homedepot.com/l/Spotsylvania/VA/Fredericksburg/22407/4660,Spotsylvania,4660,Fredericksburg,VA,22407
https://www.homedepot.com/l/Spring/TX/Spring/77373/568,Spring,568,Spring,TX,77373
https://www.homedepot.com/l/St-Augustine/FL/Saint-Augustine/32084/6334,St Augustine,6334,Saint Augustine,FL,32084
https://www.homedepot.com/l/St-Johns/FL/Saint-Johns/32259/1324,St Johns,1324,Saint Johns,FL,32259
https://www.homedepot.com/l/Steelyard/OH/Cleveland/44109/6857,Steelyard,6857,Cleveland,OH,44109
https://www.homedepot.com/l/Stockton/CA/Stockton/95212/662,Stockton,662,Stockton,CA,95212
https://www.homedepot.com/l/Streetsboro/OH/Streetsboro/44241/3859,Streetsboro,3859,Streetsboro,OH,44241
https://www.homedepot.com/l/Stuart/FL/Stuart/34994/6314,Stuart,6314,Stuart,FL,34994
https://www.homedepot.com/l/Syosset/NY/Syosset/11791/8466,Syosset,8466,Syosset,NY,11791
https://www.homedepot.com/l/Tehachapi/CA/Tehachapi/93561/6835,Tehachapi,6835,Tehachapi,CA,93561
https://www.homedepot.com/l/Temecula/CA/Temecula/92592/1028,Temecula,1028,Temecula,CA,92592
https://www.homedepot.com/l/Texarkana/TX/Texarkana/75503/6580,Texarkana,6580,Texarkana,TX,75503
https://www.homedepot.com/l/Thomas-Township/MI/Saginaw/48609/2779,Thomas Township,2779,Saginaw,MI,48609
https://www.homedepot.com/l/Thompson/NY/Monticello/12701/6172,Thompson,6172,Monticello,NY,12701
https://www.homedepot.com/l/Thousand-Oaks/CA/Thousand-Oaks/91320/6662,Thousand Oaks,6662,Thousand Oaks,CA,91320
https://www.homedepot.com/l/Toccoa/GA/Toccoa/30577/6888,Toccoa,6888,Toccoa,GA,30577
https://www.homedepot.com/l/Trotwood/OH/Dayton/45426/3856,Trotwood,3856,Dayton,OH,45426
https://www.homedepot.com/l/Truse-In-Town/TN/Memphis/38117/703,Truse In Town,703,Memphis,TN,38117
https://www.homedepot.com/l/Truxel-Rd/CA/Sacramento/95834/6649,Truxel Rd,6649,Sacramento,CA,95834
https://www.homedepot.com/l/Tulsa-Central/OK/Tulsa/74145/3913,Tulsa Central,3913,Tulsa,OK,74145
https://www.homedepot.com/l/Tupelo/MS/Saltillo/38866/2906,Tupelo,2906,Saltillo,MS,38866
https://www.homedepot.com/l/Tyler/TX/Tyler/75701/6514,Tyler,6514,Tyler,TX,75701
https://www.homedepot.com/l/Ukiah/CA/Ukiah/95482/8408,Ukiah,8408,Ukiah,CA,95482
https://www.homedepot.com/l/Va-Beach-Princess-Anne/VA/Virginia-Beach/23456/4626,Va Beach Princess Anne,4626,Virginia Beach,VA,23456
https://www.homedepot.com/l/Victor/NY/Victor/14564/1264,Victor,1264,Victor,NY,14564
https://www.homedepot.com/l/Victoria/TX/Victoria/77904/6587,Victoria,6587,Victoria,TX,77904
https://www.homedepot.com/l/Victorville/CA/Victorville/92395/665,Victorville,665,Victorville,CA,92395
https://www.homedepot.com/l/Volo/IL/Ingleside/60041/1944,Volo,1944,Ingleside,IL,60041
https://www.homedepot.com/l/W-Sacramento/CA/West-Sacramento/95605/1846,W Sacramento,1846,West Sacramento,CA,95605
https://www.homedepot.com/l/W-Toledo/OH/Toledo/43615/3801,W Toledo,3801,Toledo,OH,43615
https://www.homedepot.com/l/Warrenton/OR/Warrenton/97146/4023,Warrenton,4023,Warrenton,OR,97146
https://www.homedepot.com/l/Warrenton/VA/Warrenton/20186/8552,Warrenton,8552,Warrenton,VA,20186
https://www.homedepot.com/l/Watertown/NY/Watertown/13601/6174,Watertown,6174,Watertown,NY,13601
https://www.homedepot.com/l/Weatherford/TX/Weatherford/76086/6515,Weatherford,6515,Weatherford,TX,76086
https://www.homedepot.com/l/West-Asheville/NC/Asheville/28806/3645,West Asheville,3645,Asheville,NC,28806
https://www.homedepot.com/l/West-Aurora/IL/Aurora/60506/1957,West Aurora,1957,Aurora,IL,60506
https://www.homedepot.com/l/West-Chester/OH/West-Chester/45069/3823,West Chester,3823,West Chester,OH,45069
https://www.homedepot.com/l/West-Cleveland/OH/Cleveland/44111/3820,West Cleveland,3820,Cleveland,OH,44111
https://www.homedepot.com/l/West-Delray/FL/Delray-Beach/33446/6325,West Delray,6325,Delray Beach,FL,33446
https://www.homedepot.com/l/West-Eugene/OR/Eugene/97402/4028,West Eugene,4028,Eugene,OR,97402
https://www.homedepot.com/l/West-Evansville/IN/Evansville/47712/2010,West Evansville,2010,Evansville,IN,47712
https://www.homedepot.com/l/West-Flint/MI/Flint/48532/2716,West Flint,2716,Flint,MI,48532
https://www.homedepot.com/l/West-Knoxville/TN/Knoxville/37922/730,West Knoxville,730,Knoxville,TN,37922
https://www.homedepot.com/l/West-Mobile/AL/Mobile/36695/801,West Mobile,801,Mobile,AL,36695
https://www.homedepot.com/l/West-Palm-Beach/FL/West-Palm-Beach/33411/6330,West Palm Beach,6330,West Palm Beach,FL,33411
https://www.homedepot.com/l/West-Port-St-Lucie/FL/Port-Saint-Lucie/34986/6376,West Port St Lucie,6376,Port Saint Lucie,FL,34986
https://www.homedepot.com/l/West-Shreveport/LA/Shreveport/71129/381,West Shreveport,381,Shreveport,LA,71129
https://www.homedepot.com/l/Western-Hills/OH/Cincinnati/45211/3822,Western Hills,3822,Cincinnati,OH,45211
https://www.homedepot.com/l/Wichita-Falls/TX/Wichita-Falls/76308/6588,Wichita Falls,6588,Wichita Falls,TX,76308
https://www.homedepot.com/l/Wildwood/FL/Wildwood/34785/6842,Wildwood,6842,Wildwood,FL,34785
https://www.homedepot.com/l/Wilkins/PA/Pittsburgh/15235/4116,Wilkins,4116,Pittsburgh,PA,15235
https://www.homedepot.com/l/Williamsburg/VA/Williamsburg/23188/4635,Williamsburg,4635,Williamsburg,VA,23188
https://www.homedepot.com/l/Wilmington/NC/Wilmington/28403/3629,Wilmington,3629,Wilmington,NC,28403
https://www.homedepot.com/l/Winchester/VA/Winchester/22601/4618,Winchester,4618,Winchester,VA,22601
https://www.homedepot.com/l/Windsor/CA/Windsor/95492/6667,Windsor,6667,Windsor,CA,95492
https://www.homedepot.com/l/Winston-Salem/NC/Winston-Salem/27105/3641,Winston Salem,3641,Winston Salem,NC,27105
https://www.homedepot.com/l/Woodland/CA/Woodland/95776/1068,Woodland,1068,Woodland,CA,95776
https://www.homedepot.com/l/World-Commerce-Center/FL/Saint-Augustine/32092/6342,World Commerce Center,6342,Saint Augustine,FL,32092
https://www.homedepot.com/l/Yorkville/IL/Yorkville/60560/6887,Yorkville,6887,Yorkville,IL,60560
https://www.homedepot.com/l/Yuba-City/CA/Yuba-City/95993/1019,Yuba City,1019,Yuba City,CA,95993
https://www.homedepot.com/l/Yucca-Valley/CA/Yucca-Valley/92284/6971,Yucca Valley,6971,Yucca Valley,CA,92284
https://www.homedepot.com/l/Yulee/FL/Yulee/32097/6921,Yulee,6921,Yulee,FL,32097
https://www.homedepot.com/l/Yuma/AZ/Yuma/85365/402,Yuma,402,Yuma,AZ,85365
